LANDSAT 4               
1 13367U 82072A   09091.30413116  .00000575  00000-0  48769-4 0   476
2 13367  98.1861   2.0228 0018020 235.0139 124.9393 15.02165424432979
TDRS 1                  
1 13969U 83026B   09090.11796441 -.00000299  00000-0  10000-3 0  8420
2 13969  13.2803   9.8674 0022318 237.1920 295.1467  1.00270440 68210
LANDSAT 5               
1 14780U 84021A   09091.96900188 -.00000005  00000-0  89839-5 0  5089
2 14780  98.2491 160.2594 0002542  12.0266 348.0993 14.57090044334282
ERBS                    
1 15354U 84108B   09091.52506441  .00000062  00000-0  18485-4 0   680
2 15354  56.9854 111.7900 0012231 292.9992  66.9760 15.15722678340439
TDRS 3                  
1 19548U 88091B   09090.76901919 -.00000195  00000-0  10000-3 0  2277
2 19548  11.6928  40.6858 0025029 313.7468 196.4742  1.00275732 62364
TDRS 4                  
1 19883U 89021B   09091.74837698 -.00000286  00000-0  10000-3 0  5537
2 19883  10.3372  52.6784 0003171 289.7764  71.4566  1.00271195245954
HST                     
1 20580U 90037B   09091.56169261  .00000335  00000-0  13006-4 0  3594
2 20580  28.4712 242.2690 0004015 211.7715 148.2645 15.00469444838332
TDRS 5                  
1 21639U 91054B   09091.60126758  .00000099  00000-0  10000-3 0  4205
2 21639   9.6843  56.5028 0009716 315.7915 226.5738  1.00268919 64697
UARS                    
1 21701U 91063B   09091.17308438  .00005741  00000-0  81421-4 0  6313
2 21701  56.9739 342.1536 0079292  26.8813 333.6320 15.54597335967248
TOPEX/POSEIDON          
1 22076U 92052A   09092.20179879 -.00000038  00000-0  10000-3 0  3347
2 22076  66.0321 228.5434 0007805 264.9838  95.0287 12.80946980778511
TDRS 6                  
1 22314U 93003B   09091.37621920  .00000088  00000-0  10000-3 0  4485
2 22314   9.0291  59.5996 0005904 315.1931 139.3063  1.00264567 59414
TDRS 7                  
1 23613U 95035B   09091.45458887  .00000115  00000-0  10000-3 0  4913
2 23613  10.8743  49.0304 0004140 332.6852 181.1014  1.00267713 50220
RXTE (XTE)              
1 23757U 95074A   09090.71668962  .00001180  00000-0  26182-4 0  8354
2 23757  22.9819 227.3375 0008854  95.7509 264.4051 15.27159548733918
TRMM                    
1 25063U 97074A   09091.44224708  .00004272  00000-0  60738-4 0   289
2 25063  34.9648 126.1006 0001206 238.5085 121.5302 15.55728137648138
KIKU-7 (ETS-VII)        
1 25064U 97074B   09091.55189541  .00000682  00000-0  28021-4 0  7723
2 25064  34.9580 155.7418 0003387 332.4965  27.5570 15.25094356629308
ISS (ZARYA)             
1 25544U 98067A   09091.68602787  .00012306  00000-0  96990-4 0  5909
2 25544  51.6423 338.9854 0009269 184.1272 286.1737 15.71858385593916
LANDSAT 7               
1 25682U 99020A   09092.07433551  .00000017  00000-0  13796-4 0  5940
2 25682  98.2125 161.1664 0001562  97.8637 262.2738 14.57105768529999
FUSE 1                  
1 25791U 99035A   09091.05264433  .00000200  00000-0  59413-5 0  4068
2 25791  24.9858  80.7761 0011061 183.7589 176.2846 14.41790543515251
TERRA                   
1 25994U 99068A   09092.02524623 -.00000009  00000-0  81020-5 0  5504
2 25994  98.2044 168.1638 0000607  90.9834 269.1437 14.57110679494063
TDRS 8                  
1 26388U 00034A   09090.82993117 -.00000225  00000-0  10000-3 0  9255
2 26388   1.2277 114.4159 0004137 239.2268 223.6013  1.00267744 32159
EO-1                    
1 26619U 00075A   09092.05667820  .00000758  00000-0  16103-3 0  9208
2 26619  98.1449 160.5247 0009418 177.7686 182.3567 14.61836284445143
TIMED                   
1 26998U 01055B   09092.09913944 -.00000007  00000-0  35260-5 0  2569
2 26998  74.0724 140.4966 0002435 262.5249  97.5678 14.84061431396231
TDRS 9                  
1 27389U 02011A   09090.42758632 -.00000283  00000-0  10000-3 0  3642
2 27389   2.5204 236.0769 0006581 139.8010 264.4945  1.00262398 27407
AQUA                    
1 27424U 02022A   09092.04757921  .00001552  00000-0  35456-3 0  2330
2 27424  98.2303  35.6528 0000947  49.9667 310.1741 14.57113272367675
TDRS 10                 
1 27566U 02055A   09091.97349126 -.00000275  00000-0  00000+0 0   757
2 27566   1.2801 280.1939 0002737  76.0346 143.9034  1.00273186 23240
SORCE                   
1 27651U 03004A   09091.18791401  .00000025  00000-0  18928-4 0  8659
2 27651  39.9975  18.3315 0026572 173.1843 186.9290 14.82163067334862
GALEX                   
1 27783U 03017A   09091.15017673  .00000184  00000-0  16240-4 0  6354
2 27783  29.0000   7.8819 0003583  61.9193 298.1750 14.59737368316512
GP-B                    
1 28230U 04014A   09091.69479675  .00000206  00000-0  27681-4 0  4717
2 28230  89.9504 158.4635 0003473  74.9942 285.1671 14.75964142266496
AURA                    
1 28376U 04026A   09091.70981700  .00000050  00000-0  21185-4 0  4631
2 28376  98.2327  37.4731 0000798  57.8863 302.2394 14.57110144250676
SWIFT                   
1 28485U 04047A   09091.07500305  .00000674  00000-0  25498-4 0  2623
2 28485  20.5595  10.4152 0014268 175.5405 184.5146 14.92519768238134
THEMIS A                
1 30580U 07004A   09089.79605751 -.00000429  00000-0  00000+0 0  4038
2 30580   9.4185 254.1193 7702951 101.3453 345.1027  1.00185089  7470
THEMIS B                
1 30581U 07004B   09090.54166667 -.00001333  00000-0  00000-0 0  2407
2 30581  12.9885 359.1269 9160158 325.7044   2.9893  0.25178573  5860
THEMIS C                
1 30582U 07004C   09090.58333333 -.00000833  00000-0  00000-0 0  3807
2 30582   9.8105 345.0089 8578298 348.8047 357.4258  0.50419212  4577
THEMIS D                
1 30797U 07004D   09091.70833333 -.00000425  00000-0  00000+0 0  5296
2 30797   4.2356 253.3786 7502857 102.0650 347.4606  1.00283478  6986
THEMIS E                
1 30798U 07004E   09091.79166667 -.00000451  00000-0  00000+0 0  5542
2 30798   4.7680 252.8146 7503391 102.6378 354.8888  1.00280441  7121
C/NOFS                  
1 32765U 08017A   09091.75210514  .00003537  00000-0  13498-3 0  2611
2 32765  13.0009 273.7707 0315217 125.6727 237.3296 14.81137903 51960
AIM                     
1 31304U 07015A   09091.84584865  .00001000  00000-0  10384-3 0  6606
2 31304  97.7957 193.2570 0012828 111.1298 249.1292 14.92089967105413
FGRST (GLAST)           
1 33053U 08029A   09092.20288198  .00000278  00000-0  00000+0 0  2136
2 33053  25.5821 139.1116 0013991 347.5569  12.4627 15.04918598 44429
